     2.10           H: GEO NAV MSG DATA                     RINEX VERSION / TYPE
RTKCONV 2.4.2                           20150404 011340 UTC PGM / RUN BY / DATE 
log: D:\150403_downtown_1loop\rover_7p_car_antenna_150403.  COMMENT             
format: u-blox                                              COMMENT             
                                                            END OF HEADER       
35 15  4  3 19 45  4.0  .102445483208E-07  .000000000000E+00  .503167000000E+06
    -.287689786400E+05  .891250000000E-03 -.125000000000E-07  .000000000000E+00
    -.308159915200E+05 -.546875000000E-03 -.625000000000E-07  .240000000000E+01
    -.200200000000E+02 -.764000000000E-03  .125000000000E-06  .000000000000E+00
38 15  4  3 19 45  4.0 -.344589352608E-07  .909494701773E-12  .503244000000E+06
    -.125296161600E+05  .206250000000E-02 -.625000000000E-07  .000000000000E+00
    -.402441615200E+05 -.873750000000E-03 -.750000000000E-07  .240000000000E+01
    -.553080000000E+01 -.520000000000E-03  .000000000000E+00  .000000000000E+00
38 15  4  3 19 49 20.0 -.339932739735E-07  .000000000000E+00  .503339000000E+06
    -.125290902400E+05  .204562500000E-02 -.625000000000E-07  .000000000000E+00
    -.402443876800E+05 -.893125000000E-03 -.750000000000E-07  .240000000000E+01
    -.566400000000E+01 -.512000000000E-03  .000000000000E+00  .000000000000E+00
35 15  4  3 19 49 20.0  .102445483208E-07 -.909494701773E-12  .503339000000E+06
    -.287687508800E+05  .888750000000E-03 -.125000000000E-07  .000000000000E+00
    -.308161336000E+05 -.561875000000E-03 -.500000000000E-07  .240000000000E+01
    -.202116000000E+02 -.740000000000E-03  .125000000000E-06  .000000000000E+00
35 15  4  3 19 53 36.0  .977888703346E-08 -.909494701773E-12  .503592000000E+06
    -.287685237600E+05  .885625000000E-03 -.125000000000E-07  .000000000000E+00
    -.308162790400E+05 -.576875000000E-03 -.500000000000E-07  .240000000000E+01
    -.203968000000E+02 -.712000000000E-03  .125000000000E-06  .000000000000E+00
38 15  4  3 19 53 36.0 -.339932739735E-07  .000000000000E+00  .503592000000E+06
    -.125285686400E+05  .203000000000E-02 -.625000000000E-07  .000000000000E+00
    -.402446188000E+05 -.910625000000E-03 -.750000000000E-07  .240000000000E+01
    -.579520000000E+01 -.508000000000E-03  .625000000000E-07  .000000000000E+00
33 15  4  3 19 57 52.0  .447034835815E-07 -.727595761418E-11  .503916000000E+06
    -.586829328000E+04  .168000000000E-02  .537500000000E-06  .000000000000E+00
    -.417173016800E+05  .356687500000E-02 -.500000000000E-07  .240000000000E+02
     .141079840000E+04  .123284000000E+00 -.756250000000E-05  .000000000000E+00
35 15  4  3 19 57 52.0  .931322574615E-08 -.909494701773E-12  .503917000000E+06
    -.287682974400E+05  .883125000000E-03 -.125000000000E-07  .000000000000E+00
    -.308164283200E+05 -.590625000000E-03 -.500000000000E-07  .240000000000E+01
    -.205748000000E+02 -.684000000000E-03  .125000000000E-06  .000000000000E+00
38 15  4  3 19 57 52.0 -.339932739735E-07  .000000000000E+00  .503928000000E+06
    -.125280510400E+05  .201250000000E-02 -.750000000000E-07  .000000000000E+00
    -.402448544000E+05 -.928750000000E-03 -.750000000000E-07  .240000000000E+01
    -.592320000000E+01 -.504000000000E-03  .625000000000E-07  .000000000000E+00
35 15  4  3 20  2  8.0  .884756445885E-08  .000000000000E+00  .504107000000E+06
    -.287680717600E+05  .878750000000E-03 -.125000000000E-07  .000000000000E+00
    -.308165811200E+05 -.605000000000E-03 -.500000000000E-07  .240000000000E+01
    -.207460000000E+02 -.656000000000E-03  .125000000000E-06  .000000000000E+00
38 15  4  3 20  2  8.0 -.339932739735E-07  .000000000000E+00  .504107000000E+06
    -.125275383200E+05  .199500000000E-02 -.750000000000E-07  .000000000000E+00
    -.402450946400E+05 -.946875000000E-03 -.750000000000E-07  .240000000000E+01
    -.605000000000E+01 -.496000000000E-03  .625000000000E-07  .000000000000E+00
33 15  4  3 20  2  8.0  .428408384323E-07 -.727595761418E-11  .504107000000E+06
    -.586784560000E+04  .181812500000E-02  .537500000000E-06  .000000000000E+00
    -.417163901600E+05  .355125000000E-02 -.750000000000E-07  .240000000000E+02
     .144211120000E+04  .121340000000E+00 -.775000000000E-05  .000000000000E+00
38 15  4  3 20  6 24.0 -.339932739735E-07 -.909494701773E-12  .504360000000E+06
    -.125270300800E+05  .197437500000E-02 -.750000000000E-07  .000000000000E+00
    -.402453395200E+05 -.966250000000E-03 -.625000000000E-07  .240000000000E+01
    -.617480000000E+01 -.488000000000E-03  .625000000000E-07  .000000000000E+00
33 15  4  3 20  6 24.0  .409781932831E-07 -.100044417195E-10  .504360000000E+06
    -.586736256000E+04  .195500000000E-02  .537500000000E-06  .000000000000E+00
    -.417154835200E+05  .353062500000E-02 -.100000000000E-06  .240000000000E+02
     .147292040000E+04  .119352000000E+00 -.793750000000E-05  .000000000000E+00
35 15  4  3 20  6 24.0  .884756445885E-08  .909494701773E-12  .504360000000E+06
    -.287678472000E+05  .875000000000E-03 -.125000000000E-07  .000000000000E+00
    -.308167376000E+05 -.617500000000E-03 -.500000000000E-07  .240000000000E+01
    -.209100000000E+02 -.624000000000E-03  .125000000000E-06  .000000000000E+00
35 15  4  3 20 10 40.0  .884756445885E-08  .909494701773E-12  .504618000000E+06
    -.287676236000E+05  .870000000000E-03 -.250000000000E-07  .000000000000E+00
    -.308168972800E+05 -.630625000000E-03 -.500000000000E-07  .240000000000E+01
    -.210656000000E+02 -.596000000000E-03  .125000000000E-06  .000000000000E+00
38 15  4  3 20 10 40.0 -.339932739735E-07 -.909494701773E-12  .504619000000E+06
    -.125265271200E+05  .195437500000E-02 -.750000000000E-07  .000000000000E+00
    -.402455889600E+05 -.984375000000E-03 -.625000000000E-07  .240000000000E+01
    -.629760000000E+01 -.480000000000E-03  .625000000000E-07  .000000000000E+00
35 15  4  3 20 14 56.0  .884756445885E-08  .909494701773E-12  .504875000000E+06
    -.287674016800E+05  .866250000000E-03 -.250000000000E-07  .000000000000E+00
    -.308170603200E+05 -.643125000000E-03 -.500000000000E-07  .240000000000E+01
    -.212140000000E+02 -.572000000000E-03  .125000000000E-06  .000000000000E+00
38 15  4  3 20 14 56.0 -.339932739735E-07 -.181898940355E-11  .504875000000E+06
    -.125260292800E+05  .193187500000E-02 -.875000000000E-07  .000000000000E+00
    -.402458430400E+05 -.100187500000E-02 -.625000000000E-07  .240000000000E+01
    -.641840000000E+01 -.472000000000E-03  .625000000000E-07  .000000000000E+00
33 15  4  3 20 14 56.0  .349245965481E-07 -.127329258248E-10  .504875000000E+06
    -.586629256000E+04  .222875000000E-02  .525000000000E-06  .000000000000E+00
    -.417136907200E+05  .347625000000E-02 -.137500000000E-06  .240000000000E+02
     .153298600000E+04  .115256000000E+00 -.825000000000E-05  .000000000000E+00
35 15  4  3 20 19 12.0  .884756445885E-08  .181898940355E-11  .505128000000E+06
    -.287671807200E+05  .860000000000E-03 -.250000000000E-07  .000000000000E+00
    -.308172265600E+05 -.656250000000E-03 -.500000000000E-07  .240000000000E+01
    -.213564000000E+02 -.540000000000E-03  .125000000000E-06  .000000000000E+00
33 15  4  3 20 19 12.0  .316649675369E-07 -.118234311230E-10  .505200000000E+06
    -.586570480000E+04  .236250000000E-02  .525000000000E-06  .000000000000E+00
    -.417128052800E+05  .343875000000E-02 -.162500000000E-06  .240000000000E+02
     .156222120000E+04  .113148000000E+00 -.837500000000E-05  .000000000000E+00
35 15  4  3 20 23 28.0  .931322574615E-08  .272848410532E-11  .505386000000E+06
    -.287669613600E+05  .854375000000E-03 -.250000000000E-07  .000000000000E+00
    -.308173961600E+05 -.667500000000E-03 -.500000000000E-07  .240000000000E+01
    -.214904000000E+02 -.508000000000E-03  .125000000000E-06  .000000000000E+00
38 15  4  3 20 23 28.0 -.344589352608E-07  .909494701773E-12  .505547000000E+06
    -.125250510400E+05  .188937500000E-02 -.875000000000E-07  .000000000000E+00
    -.402463643200E+05 -.103312500000E-02 -.625000000000E-07  .240000000000E+01
    -.665280000000E+01 -.452000000000E-03  .625000000000E-07  .000000000000E+00
33 15  4  3 20 23 28.0  .284053385258E-07 -.118234311230E-10  .505561000000E+06
    -.586508280000E+04  .249437500000E-02  .512500000000E-06  .000000000000E+00
    -.417119303200E+05  .339750000000E-02 -.187500000000E-06  .240000000000E+02
     .159091280000E+04  .111000000000E+00 -.856250000000E-05  .000000000000E+00
38 15  4  3 20 27 44.0 -.339932739735E-07  .272848410532E-11  .505643000000E+06
    -.125245702400E+05  .186625000000E-02 -.875000000000E-07  .000000000000E+00
    -.402466308800E+05 -.104937500000E-02 -.625000000000E-07  .240000000000E+01
    -.676640000000E+01 -.444000000000E-03  .625000000000E-07  .000000000000E+00
35 15  4  3 20 27 44.0  .977888703346E-08  .272848410532E-11  .505643000000E+06
    -.287667434400E+05  .848750000000E-03 -.250000000000E-07  .000000000000E+00
    -.308175686400E+05 -.679375000000E-03 -.500000000000E-07  .240000000000E+01
    -.216164000000E+02 -.480000000000E-03  .125000000000E-06  .000000000000E+00
33 15  4  3 20 27 44.0  .251457095146E-07 -.127329258248E-10  .505643000000E+06
    -.586442744000E+04  .262687500000E-02  .500000000000E-06  .000000000000E+00
    -.417110667200E+05  .335250000000E-02 -.200000000000E-06  .240000000000E+02
     .161904840000E+04  .108816000000E+00 -.868750000000E-05  .000000000000E+00
35 15  4  3 20 32  0.0  .102445483208E-07  .363797880709E-11  .505896000000E+06
    -.287665269600E+05  .841875000000E-03 -.250000000000E-07  .000000000000E+00
    -.308177441600E+05 -.690625000000E-03 -.375000000000E-07  .240000000000E+01
    -.217352000000E+02 -.452000000000E-03  .125000000000E-06  .000000000000E+00
38 15  4  3 20 32  0.0 -.330619513988E-07  .454747350886E-11  .505896000000E+06
    -.125240953600E+05  .184187500000E-02 -.100000000000E-06  .000000000000E+00
    -.402469016000E+05 -.106250000000E-02 -.625000000000E-07  .240000000000E+01
    -.687800000000E+01 -.436000000000E-03  .625000000000E-07  .000000000000E+00
33 15  4  3 20 32  0.0  .218860805035E-07 -.118234311230E-10  .505896000000E+06
    -.586373856000E+04  .275687500000E-02  .500000000000E-06  .000000000000E+00
    -.417102150400E+05  .329937500000E-02 -.225000000000E-06  .240000000000E+02
     .164662080000E+04  .106588000000E+00 -.881250000000E-05  .000000000000E+00
38 15  4  3 20 36 16.0 -.316649675369E-07  .727595761418E-11  .506153000000E+06
    -.125236271200E+05  .181937500000E-02 -.100000000000E-06  .000000000000E+00
    -.402471756800E+05 -.107750000000E-02 -.500000000000E-07  .240000000000E+01
    -.698760000000E+01 -.424000000000E-03  .625000000000E-07  .000000000000E+00
33 15  4  3 20 36 16.0  .186264514923E-07 -.109139364213E-10  .506153000000E+06
    -.586301640000E+04  .288312500000E-02  .487500000000E-06  .000000000000E+00
    -.417093777600E+05  .324125000000E-02 -.250000000000E-06  .240000000000E+02
     .167361840000E+04  .104320000000E+00 -.900000000000E-05  .000000000000E+00
